{
  "type": "FeatureCollection",
  "features": [
    {
      "type": "Feature",
      "properties": {
        "norad_id": 66927,
        "name": "STARLINK-35943",
        "group": "last-30-days",
        "lat": -50.08286514822172,
        "lon": -93.806297258096,
        "alt_km": 325.880914082647,
        "timestamp": "2025-12-18T07:01:53.342700+00:00",
        "meta_object_name": "STARLINK-35943",
        "meta_object_id": "2025-286C",
        "meta_epoch": "2025-12-17T22:00:01.999584",
        "meta_mean_motion": 15.84552242,
        "meta_eccentricity": 7.715e-05,
        "meta_inclination": 53.1563,
        "meta_ra_of_asc_node": 24.4195,
        "meta_arg_of_pericenter": 82.2621,
        "meta_mean_anomaly": 184.1423,
        "meta_ephemeris_type": 0,
        "meta_classification_type": "U",
        "meta_norad_cat_id": 66927,
        "meta_element_set_no": 999,
        "meta_rev_at_epoch": 282,
        "meta_bstar": -0.0061869229,
        "meta_mean_motion_dot": -0.0128219,
        "meta_mean_motion_ddot": 0,
        "tle_line1": "1 66927U 25286C   25351.91668981 -.01282190  00000+0 -61869-2 0  9993",
        "tle_line2": "2 66927  53.1563  24.4195 0000771  82.2621 184.1423 15.84552242  2829"
      },
      "geometry": {
        "type": "Point",
        "coordinates": [
          -93.806297258096,
          -50.08286514822172
        ]
      }
    },
    {
      "type": "Feature",
      "properties": {
        "norad_id": 66928,
        "name": "STARLINK-35944",
        "group": "last-30-days",
        "lat": -48.43542211235838,
        "lon": -99.72919383921996,
        "alt_km": 325.8015449942577,
        "timestamp": "2025-12-18T07:01:53.342712+00:00",
        "meta_object_name": "STARLINK-35944",
        "meta_object_id": "2025-286D",
        "meta_epoch": "2025-12-17T22:00:01.999584",
        "meta_mean_motion": 15.84522566,
        "meta_eccentricity": 7.204e-05,
        "meta_inclination": 53.1562,
        "meta_ra_of_asc_node": 24.4279,
        "meta_arg_of_pericenter": 93.7934,
        "meta_mean_anomaly": 168.4273,
        "meta_ephemeris_type": 0,
        "meta_classification_type": "U",
        "meta_norad_cat_id": 66928,
        "meta_element_set_no": 999,
        "meta_rev_at_epoch": 282,
        "meta_bstar": -0.0061217843,
        "meta_mean_motion_dot": -0.0126863,
        "meta_mean_motion_ddot": 0,
        "tle_line1": "1 66928U 25286D   25351.91668981 -.01268630  00000+0 -61218-2 0  9995",
        "tle_line2": "2 66928  53.1562  24.4279 0000720  93.7934 168.4273 15.84522566  2824"
      },
      "geometry": {
        "type": "Point",
        "coordinates": [
          -99.72919383921996,
          -48.43542211235838
        ]
      }
    },
    {
      "type": "Feature",
      "properties": {
        "norad_id": 66929,
        "name": "STARLINK-36169",
        "group": "last-30-days",
        "lat": -50.83023522486569,
        "lon": -90.49825566963378,
        "alt_km": 325.89608997916093,
        "timestamp": "2025-12-18T07:01:53.342724+00:00",
        "meta_object_name": "STARLINK-36169",
        "meta_object_id": "2025-286E",
        "meta_epoch": "2025-12-17T22:00:01.999584",
        "meta_mean_motion": 15.84559531,
        "meta_eccentricity": 7.702e-05,
        "meta_inclination": 53.1562,
        "meta_ra_of_asc_node": 24.4145,
        "meta_arg_of_pericenter": 83.9768,
        "meta_mean_anomaly": 184.6632,
        "meta_ephemeris_type": 0,
        "meta_classification_type": "U",
        "meta_norad_cat_id": 66929,
        "meta_element_set_no": 999,
        "meta_rev_at_epoch": 282,
        "meta_bstar": -0.0062166751,
        "meta_mean_motion_dot": -0.01288024,
        "meta_mean_motion_ddot": 0,
        "tle_line1": "1 66929U 25286E   25351.91668981 -.01288024  00000+0 -62167-2 0  9999",
        "tle_line2": "2 66929  53.1562  24.4145 0000770  83.9768 184.6632 15.84559531  2829"
      },
      "geometry": {
        "type": "Point",
        "coordinates": [
          -90.49825566963378,
          -50.83023522486569
        ]
      }
    },
    {
      "type": "Feature",
      "properties": {
        "norad_id": 66930,
        "name": "STARLINK-36206",
        "group": "last-30-days",
        "lat": -51.42840370749079,
        "lon": -87.38911691766097,
        "alt_km": 325.89526347753326,
        "timestamp": "2025-12-18T07:01:53.342734+00:00",
        "meta_object_name": "STARLINK-36206",
        "meta_object_id": "2025-286F",
        "meta_epoch": "2025-12-17T22:00:01.999584",
        "meta_mean_motion": 15.84579411,
        "meta_eccentricity": 7.969e-05,
        "meta_inclination": 53.1562,
        "meta_ra_of_asc_node": 24.4103,
        "meta_arg_of_pericenter": 88.1116,
        "meta_mean_anomaly": 182.5543,
        "meta_ephemeris_type": 0,
        "meta_classification_type": "U",
        "meta_norad_cat_id": 66930,
        "meta_element_set_no": 999,
        "meta_rev_at_epoch": 282,
        "meta_bstar": -0.0062647627,
        "meta_mean_motion_dot": -0.01297911,
        "meta_mean_motion_ddot": 0,
        "tle_line1": "1 66930U 25286F   25351.91668981 -.01297911  00000+0 -62648-2 0  9990",
        "tle_line2": "2 66930  53.1562  24.4103 0000796  88.1116 182.5543 15.84579411  2824"
      },
      "geometry": {
        "type": "Point",
        "coordinates": [
          -87.38911691766097,
          -51.42840370749079
        ]
      }
    },
    {
      "type": "Feature",
      "properties": {
        "norad_id": 66931,
        "name": "STARLINK-36130",
        "group": "last-30-days",
        "lat": -51.99689988883764,
        "lon": -83.82104639778869,
        "alt_km": 325.8402520333084,
        "timestamp": "2025-12-18T07:01:53.342746+00:00",
        "meta_object_name": "STARLINK-36130",
        "meta_object_id": "2025-286G",
        "meta_epoch": "2025-12-17T22:00:01.999584",
        "meta_mean_motion": 15.84583292,
        "meta_eccentricity": 6.877e-05,
        "meta_inclination": 53.156,
        "meta_ra_of_asc_node": 24.4057,
        "meta_arg_of_pericenter": 85.6489,
        "meta_mean_anomaly": 187.3042,
        "meta_ephemeris_type": 0,
        "meta_classification_type": "U",
        "meta_norad_cat_id": 66931,
        "meta_element_set_no": 999,
        "meta_rev_at_epoch": 282,
        "meta_bstar": -0.0062804797,
        "meta_mean_motion_dot": -0.01300926,
        "meta_mean_motion_ddot": 0,
        "tle_line1": "1 66931U 25286G   25351.91668981 -.01300926  00000+0 -62805-2 0  9997",
        "tle_line2": "2 66931  53.1560  24.4057 0000687  85.6489 187.3042 15.84583292  2824"
      },
      "geometry": {
        "type": "Point",
        "coordinates": [
          -83.82104639778869,
          -51.99689988883764
        ]
      }
    },
    {
      "type": "Feature",
      "properties": {
        "norad_id": 66932,
        "name": "STARLINK-36177",
        "group": "last-30-days",
        "lat": -52.44618705758644,
        "lon": -80.25118291022733,
        "alt_km": 325.86826186785856,
        "timestamp": "2025-12-18T07:01:53.342756+00:00",
        "meta_object_name": "STARLINK-36177",
        "meta_object_id": "2025-286H",
        "meta_epoch": "2025-12-17T22:00:01.999584",
        "meta_mean_motion": 15.845915,
        "meta_eccentricity": 7.325e-05,
        "meta_inclination": 53.1561,
        "meta_ra_of_asc_node": 24.401,
        "meta_arg_of_pericenter": 85.0462,
        "meta_mean_anomaly": 190.1373,
        "meta_ephemeris_type": 0,
        "meta_classification_type": "U",
        "meta_norad_cat_id": 66932,
        "meta_element_set_no": 999,
        "meta_rev_at_epoch": 282,
        "meta_bstar": -0.0062922986,
        "meta_mean_motion_dot": -0.01303562,
        "meta_mean_motion_ddot": 0,
        "tle_line1": "1 66932U 25286H   25351.91668981 -.01303562  00000+0 -62923-2 0  9998",
        "tle_line2": "2 66932  53.1561  24.4010 0000732  85.0462 190.1373 15.84591500  2821"
      },
      "geometry": {
        "type": "Point",
        "coordinates": [
          -80.25118291022733,
          -52.44618705758644
        ]
      }
    },
    {
      "type": "Feature",
      "properties": {
        "norad_id": 66933,
        "name": "STARLINK-36157",
        "group": "last-30-days",
        "lat": -52.78215485269518,
        "lon": -76.66073487834802,
        "alt_km": 325.9212821548763,
        "timestamp": "2025-12-18T07:01:53.342766+00:00",
        "meta_object_name": "STARLINK-36157",
        "meta_object_id": "2025-286J",
        "meta_epoch": "2025-12-17T22:00:01.999584",
        "meta_mean_motion": 15.84605296,
        "meta_eccentricity": 8.047e-05,
        "meta_inclination": 53.1561,
        "meta_ra_of_asc_node": 24.3964,
        "meta_arg_of_pericenter": 88.3812,
        "meta_mean_anomaly": 189.0044,
        "meta_ephemeris_type": 0,
        "meta_classification_type": "U",
        "meta_norad_cat_id": 66933,
        "meta_element_set_no": 999,
        "meta_rev_at_epoch": 282,
        "meta_bstar": -0.0063614475,
        "meta_mean_motion_dot": -0.0131696,
        "meta_mean_motion_ddot": 0,
        "tle_line1": "1 66933U 25286J   25351.91668981 -.01316960  00000+0 -63614-2 0  9993",
        "tle_line2": "2 66933  53.1561  24.3964 0000804  88.3812 189.0044 15.84605296  2824"
      },
      "geometry": {
        "type": "Point",
        "coordinates": [
          -76.66073487834802,
          -52.78215485269518
        ]
      }
    }
  ]
}